NORAD_CAT_ID,OBJECT_NAME,OBJECT_TYPE,EPOCH,MEAN_MOTION,ECCENTRICITY,INCLINATION,RA_OF_ASC_NODE,ARG_OF_PERICENTER,MEAN_ANOMALY,BSTAR,MEAN_MOTION_DOT,MEAN_MOTION_DDOT,TLE_LINE0,TLE_LINE1,TLE_LINE2,SEMIMAJOR_AXIS,PERIOD,APOGEE,PERIGEE,DECAYED
55663.0,STARLINK-5473,PAYLOAD,2023-03-30 05:55:51,15.69933443,0.0002801,70.0008,36.1174,255.9472,104.1413,4.3851e-05,5.065e-05,0.0,0 STARLINK-5473,1 55663U 23021AM  23089.24712784  .00005065  00000-0  43851-4 0  9991,2 55663  70.0008  36.1174 0002801 255.9472 104.1413 15.69933443  6893,6737.224,91.724,360.977,357.202,0.0
55663.0,STARLINK-5473,PAYLOAD,2023-03-31 00:16:53,15.69925896,0.0002631,70.0019,33.968,264.0355,96.0541,2.4883e-05,2.781e-05,0.0,0 STARLINK-5473,1 55663U 23021AM  23090.01173101  .00002781  00000-0  24883-4 0  9998,2 55663  70.0019  33.9680 0002631 264.0355  96.0541 15.69925896  7013,6737.246,91.724,360.884,357.338,0.0
55663.0,STARLINK-5473,PAYLOAD,2023-03-31 20:09:40,15.69919474,0.0002957,70.0015,31.6383,276.416,83.6699,-8.6751e-06,-1.255e-05,0.0,0 STARLINK-5473,1 55663U 23021AM  23090.84004978 -.00001255  00000-0 -86751-5 0  9994,2 55663  70.0015  31.6383 0002957 276.4160  83.6699 15.69919474  7141,6737.264,91.724,361.122,357.137,0.0
55663.0,STARLINK-5473,PAYLOAD,2023-04-01 08:23:41,15.69917618,0.0002539,70.0017,30.2063,270.6408,89.4497,-4.8883e-06,-8e-06,0.0,0 STARLINK-5473,1 55663U 23021AM  23091.34978764 -.00000800  00000-0 -48883-5 0  9992,2 55663  70.0017  30.2063 0002539 270.6408  89.4497 15.69917618  7531,6737.27,91.725,360.845,357.424,0.0
55663.0,STARLINK-5473,PAYLOAD,2023-04-01 22:09:26,15.69947424,0.0003168,70.0018,28.5974,258.4585,101.6255,6.2682e-05,7.338e-05,0.0,0 STARLINK-5473,1 55663U 23021AM  23091.92322617  .00007338  00000-0  62682-4 0  9999,2 55663  70.0018  28.5974 0003168 258.4585 101.6255 15.69947424  7629,6737.184,91.723,361.184,356.915,0.0
55663.0,STARLINK-5473,PAYLOAD,2023-04-02 05:48:13,15.6991383,0.0002941,70.002,27.7017,268.7611,91.3247,-1.4487e-05,-1.953e-05,0.0,0 STARLINK-5473,1 55663U 23021AM  23092.24182159 -.00001953  00000-0 -14487-4 0  9999,2 55663  70.0020  27.7017 0002941 268.7611  91.3247 15.69913830  7364,6737.281,91.725,361.127,357.164,0.0
55663.0,STARLINK-5473,PAYLOAD,2023-04-02 07:19:58,15.69920767,0.0002966,70.0011,27.5218,275.4396,84.6462,8.1074e-06,7.62e-06,0.0,0 STARLINK-5473,1 55663U 23021AM  23092.30553666  .00000762  00000-0  81074-5 0  9993,2 55663  70.0011  27.5218 0002966 275.4396  84.6462 15.69920767  7683,6737.261,91.724,361.124,357.127,0.0
55663.0,STARLINK-5473,PAYLOAD,2023-04-03 04:44:30,15.69907168,0.0002668,70.0032,25.0151,272.1701,87.9189,-4.951e-05,-6.156e-05,0.0,0 STARLINK-5473,1 55663U 23021AM  23093.19757484 -.00006156  00000-0 -49510-4 0  9998,2 55663  70.0032  25.0151 0002668 272.1701  87.9189 15.69907168  7512,6737.3,91.725,360.962,357.367,0.0
55663.0,STARLINK-5473,PAYLOAD,2023-04-03 07:48:00,15.69923239,0.0003186,70.0016,24.6553,270.0294,90.0537,6.8398e-07,-1.3e-06,0.0,0 STARLINK-5473,1 55663U 23021AM  23093.32500197 -.00000130  00000-0  68398-6 0  9992,2 55663  70.0016  24.6553 0003186 270.0294  90.0537 15.69923239  7536,6737.254,91.724,361.265,356.972,0.0
55663.0,STARLINK-5473,PAYLOAD,2023-04-03 21:33:45,15.69931307,0.0003492,70.0009,23.0423,267.1369,92.9427,2.3575e-05,2.624e-05,0.0,0 STARLINK-5473,1 55663U 23021AM  23093.89844825  .00002624  00000-0  23575-4 0  9998,2 55663  70.0009  23.0423 0003492 267.1369  92.9427 15.69931307  7935,6737.231,91.724,361.448,356.743,0.0
55663.0,STARLINK-5473,PAYLOAD,2023-04-04 06:44:17,15.69919482,0.0002941,70.0028,21.9668,269.1105,90.9754,3.2082e-05,3.646e-05,0.0,0 STARLINK-5473,1 55663U 23021AM  23094.28075374  .00003646  00000-0  32082-4 0  9995,2 55663  70.0028  21.9668 0002941 269.1105  90.9754 15.69919482  7999,6737.264,91.724,361.111,357.148,0.0
55663.0,STARLINK-5473,PAYLOAD,2023-04-04 20:30:03,15.69925553,0.0003171,70.0022,20.3565,269.9566,90.1266,2.01e-05,2.205e-05,0.0,0 STARLINK-5473,1 55663U 23021AM  23094.85420373  .00002205  00000-0  20100-4 0  9999,2 55663  70.0022  20.3565 0003171 269.9566  90.1266 15.69925553  7779,6737.247,91.724,361.248,356.976,0.0
55663.0,STARLINK-5473,PAYLOAD,2023-04-04 22:01:48,15.69926307,0.0003355,70.0027,20.1775,269.5923,90.4888,2.8957e-05,3.271e-05,0.0,0 STARLINK-5473,1 55663U 23021AM  23094.91792047  .00003271  00000-0  28957-4 0  9998,2 55663  70.0027  20.1775 0003355 269.5923  90.4888 15.69926307  8099,6737.245,91.724,361.37,356.849,0.0
55663.0,STARLINK-5473,PAYLOAD,2023-04-05 05:40:33,15.69929847,0.0003176,70.0029,19.2829,270.8698,89.2134,6.5776e-05,7.705e-05,0.0,0 STARLINK-5473,1 55663U 23021AM  23095.23650381  .00007705  00000-0  65776-4 0  9994,2 55663  70.0029  19.2829 0003176 270.8698  89.2134 15.69929847  8143,6737.235,91.724,361.239,356.96,0.0
55663.0,STARLINK-5473,PAYLOAD,2023-04-05 20:58:05,15.69930175,0.0003482,70.0027,17.4905,264.3765,95.7034,5.9933e-05,7.002e-05,0.0,0 STARLINK-5473,1 55663U 23021AM  23095.87367069  .00007002  00000-0  59933-4 0  9990,2 55663  70.0027  17.4905 0003482 264.3765  95.7034 15.69930175  8247,6737.234,91.724,361.445,356.753,0.0
55663.0,STARLINK-5473,PAYLOAD,2023-04-05 22:29:50,15.69933244,0.0003229,70.0033,17.3109,268.2369,91.8457,7.1489e-05,8.395e-05,0.0,0 STARLINK-5473,1 55663U 23021AM  23095.93738753  .00008395  00000-0  71489-4 0  9995,2 55663  70.0033  17.3109 0003229 268.2369  91.8457 15.69933244  7943,6737.225,91.724,361.265,356.915,0.0
55663.0,STARLINK-5473,PAYLOAD,2023-04-06 06:08:34,15.69981022,0.0003343,70.0035,16.417,262.7372,97.3444,0.00034374,0.00041421,0.0,0 STARLINK-5473,1 55663U 23021AM  23096.25596054  .00041421  00000-0  34374-3 0  9995,2 55663  70.0035  16.4170 0003343 262.7372  97.3444 15.69981022  7992,6737.088,91.721,361.206,356.701,0.0
55663.0,STARLINK-5473,PAYLOAD,2023-04-07 03:33:07,15.69916709,0.0003105,70.0022,13.9083,261.0869,98.9975,0.00013706,0.00016294,0.0,0 STARLINK-5473,1 55663U 23021AM  23097.14800528  .00016294  00000-0  13706-3 0  9994,2 55663  70.0022  13.9083 0003105 261.0869  98.9975 15.69916709  8135,6737.272,91.725,361.229,357.045,0.0
55663.0,STARLINK-5473,PAYLOAD,2023-04-08 04:01:09,15.69924877,0.0003369,70.002,11.0403,271.6998,88.3812,3.5451e-05,4.052e-05,0.0,0 STARLINK-5473,1 55663U 23021AM  23098.16747339  .00004052  00000-0  35451-4 0  9998,2 55663  70.0020  11.0403 0003369 271.6998  88.3812 15.69924877  8295,6737.249,91.724,361.384,356.844,0.0
55663.0,STARLINK-5473,PAYLOAD,2023-04-08 13:11:40,15.69930331,0.0003247,70.0017,9.9679,266.9465,93.1359,5.7503e-05,6.709e-05,0.0,0 STARLINK-5473,1 55663U 23021AM  23098.54977310  .00006709  00000-0  57503-4 0  9997,2 55663  70.0017   9.9679 0003247 266.9465  93.1359 15.69930331  8666,6737.233,91.724,361.286,356.911,0.0
55663.0,STARLINK-5473,PAYLOAD,2023-04-09 01:25:41,15.69933057,0.0003325,70.002,8.5334,265.0467,95.0349,9.4669e-05,0.0001119,0.0,0 STARLINK-5473,1 55663U 23021AM  23099.05950748  .00011190  00000-0  94669-4 0  9994,2 55663  70.0020   8.5334 0003325 265.0467  95.0349 15.69933057  8749,6737.226,91.724,361.331,356.85,0.0
55663.0,STARLINK-5473,PAYLOAD,2023-04-09 21:18:28,15.69929291,0.0003611,70.0012,6.2041,267.4686,92.6096,6.8137e-05,7.99e-05,0.0,0 STARLINK-5473,1 55663U 23021AM  23099.88782624  .00007990  00000-0  68137-4 0  9995,2 55663  70.0012   6.2041 0003611 267.4686  92.6096 15.69929291  8878,6737.236,91.724,361.534,356.668,0.0
55663.0,STARLINK-5473,PAYLOAD,2023-04-10 00:21:58,15.69940113,0.0003528,70.0014,5.8462,263.7139,96.3655,0.00011757,0.00013957,0.0,0 STARLINK-5473,1 55663U 23021AM  23100.01525754  .00013957  00000-0  11757-3 0  9997,2 55663  70.0014   5.8462 0003528 263.7139  96.3655 15.69940113  8587,6737.205,91.723,361.447,356.693,0.0
55663.0,STARLINK-5473,PAYLOAD,2023-04-10 03:25:28,15.69945084,0.000365,70.0015,5.4884,262.722,97.3561,0.00013968,0.00016631,0.0,0 STARLINK-5473,1 55663U 23021AM  23100.14268969  .00016631  00000-0  13968-3 0  9991,2 55663  70.0015   5.4884 0003650 262.7220  97.3561 15.69945084  8914,6737.191,91.723,361.515,356.597,0.0
55663.0,STARLINK-5473,PAYLOAD,2023-04-10 20:14:44,15.69934777,0.0003006,70.0011,3.5153,263.3931,96.6922,0.0001084,0.00012846,0.0,0 STARLINK-5473,1 55663U 23021AM  23100.84357580  .00012846  00000-0  10840-3 0  9996,2 55663  70.0011   3.5153 0003006 263.3931  96.6922 15.69934777  8717,6737.221,91.724,361.111,357.06,0.0
55663.0,STARLINK-5473,PAYLOAD,2023-04-11 02:21:45,15.69936953,0.0003049,70.0016,2.8006,261.6861,98.3989,9.7887e-05,0.00011579,0.0,0 STARLINK-5473,1 55663U 23021AM  23101.09844139  .00011579  00000-0  97887-4 0  9994,2 55663  70.0016   2.8006 0003049 261.6861  98.3989 15.69936953  9060,6737.214,91.723,361.134,357.025,0.0
55663.0,STARLINK-5473,PAYLOAD,2023-04-11 20:42:46,15.69935572,0.0003684,70.0014,0.6518,263.853,96.2246,9.5039e-05,0.00011236,0.0,0 STARLINK-5473,1 55663U 23021AM  23101.86304194  .00011236  00000-0  95039-4 0  9998,2 55663  70.0014   0.6518 0003684 263.8530  96.2246 15.69935572  9186,6737.218,91.724,361.565,356.601,0.0
55663.0,STARLINK-5473,PAYLOAD,2023-04-12 02:49:47,15.69919666,0.0003229,70.0011,359.9327,276.3579,83.7249,0.00011259,0.00013344,0.0,0 STARLINK-5473,1 55663U 23021AM  23102.11791204  .00013344  00000-0  11259-3 0  9992,2 55663  70.0011 359.9327 0003229 276.3579  83.7249 15.69919666  8918,6737.264,91.724,361.304,356.953,0.0
55663.0,STARLINK-5473,PAYLOAD,2023-04-13 04:49:34,15.69927938,0.0003341,70.0021,356.8894,272.0736,88.0077,6.0427e-05,7.06e-05,0.0,0 STARLINK-5473,1 55663U 23021AM  23103.20109541  .00007060  00000-0  60427-4 0  9990,2 55663  70.0021 356.8894 0003341 272.0736  88.0077 15.69927938  9398,6737.24,91.724,361.356,356.854,0.0
55663.0,STARLINK-5473,PAYLOAD,2023-04-14 12:56:22,15.69924758,0.0003264,70.0017,353.1242,274.2039,85.8784,4.1429e-05,4.772e-05,0.0,0 STARLINK-5473,1 55663U 23021AM  23104.53915010  .00004772  00000-0  41429-4 0  9991,2 55663  70.0017 353.1242 0003264 274.2039  85.8784 15.69924758  9605,6737.249,91.724,361.313,356.915,0.0
